{"type": "FeatureCollection", "features": [ {"type": "Feature", "properties": {"norad_id": 41469, "name": "IRNSS-1G", "group": "gnss", "lat": 4.4919223045261445, "lon": 172.10977880550743, "alt_km": 35786.822017098995, "timestamp": "2025-12-22T20:43:46.091873+00:00", "meta": {"OBJECT_NAME": "IRNSS-1G", "OBJECT_ID": "2016-027A", "EPOCH": "2025-12-22T13:46:50.886048", "MEAN_MOTION": 1.00275262, "ECCENTRICITY": 0.00026399, "INCLINATION": 4.7586, "RA_OF_ASC_NODE": 101.8453, "ARG_OF_PERICENTER": 328.4596, "MEAN_ANOMALY": 357.3187, "EPHEMERIS_TYPE": 0, "CLASSIFICATION_TYPE": "U", "NORAD_CAT_ID": 41469, "ELEMENT_SET_NO": 999, "REV_AT_EPOCH": 3540, "BSTAR": 0, "MEAN_MOTION_DOT": -3.15e-06, "MEAN_MOTION_DDOT": 0}, "tle": {"line1": "1 41469U 16027A   25356.57420007 -.00000315  00000+0  00000+0 0  9994", "line2": "2 41469   4.7586 101.8453 0002639 328.4596 357.3187  1.00275262 35406"}}, "geometry": {"type": "Point", "coordinates": [172.10977880550743, 4.4919223045261445]}}, {"type": "Feature", "properties": {"norad_id": 41549, "name": "GSAT0211 (GALILEO 14)", "group": "gnss", "lat": 21.096419445096494, "lon": -117.85010027419874, "alt_km": 23207.754877069852, "timestamp": "2025-12-22T20:43:46.091884+00:00", "meta": {"OBJECT_NAME": "GSAT0211 (GALILEO 14)", "OBJECT_ID": "2016-030A", "EPOCH": "2025-12-22T05:38:05.943264", "MEAN_MOTION": 1.70473275, "ECCENTRICITY": 0.00040882, "INCLINATION": 55.1491, "RA_OF_ASC_NODE": 226.562, "ARG_OF_PERICENTER": 17.521, "MEAN_ANOMALY": 342.5988, "EPHEMERIS_TYPE": 0, "CLASSIFICATION_TYPE": "U", "NORAD_CAT_ID": 41549, "ELEMENT_SET_NO": 999, "REV_AT_EPOCH": 5965, "BSTAR": 0, "MEAN_MOTION_DOT": 7.3e-07, "MEAN_MOTION_DDOT": 0}, "tle": {"line1": "1 41549U 16030A   25356.23479101  .00000073  00000+0  00000+0 0  9999", "line2": "2 41549  55.1491 226.5620 0004088  17.5210 342.5988  1.70473275 59659"}}, "geometry": {"type": "Point", "coordinates": [-117.85010027419874, 21.096419445096494]}}, {"type": "Feature", "properties": {"norad_id": 41550, "name": "GSAT0210 (GALILEO 13)", "group": "gnss", "lat": -37.61978850941083, "lon": 79.02682347851652, "alt_km": 23224.88952809448, "timestamp": "2025-12-22T20:43:46.091897+00:00", "meta": {"OBJECT_NAME": "GSAT0210 (GALILEO 13)", "OBJECT_ID": "2016-030B", "EPOCH": "2025-12-21T21:44:03.728544", "MEAN_MOTION": 1.70473553, "ECCENTRICITY": 6.609e-05, "INCLINATION": 55.1487, "RA_OF_ASC_NODE": 226.5692, "ARG_OF_PERICENTER": 213.9992, "MEAN_ANOMALY": 146.1033, "EPHEMERIS_TYPE": 0, "CLASSIFICATION_TYPE": "U", "NORAD_CAT_ID": 41550, "ELEMENT_SET_NO": 999, "REV_AT_EPOCH": 5964, "BSTAR": 0, "MEAN_MOTION_DOT": 7.3e-07, "MEAN_MOTION_DDOT": 0}, "tle": {"line1": "1 41550U 16030B   25355.90559871  .00000073  00000+0  00000+0 0  9997", "line2": "2 41550  55.1487 226.5692 0000660 213.9992 146.1033  1.70473553 59643"}}, "geometry": {"type": "Point", "coordinates": [79.02682347851652, -37.61978850941083]}}, {"type": "Feature", "properties": {"norad_id": 41586, "name": "BEIDOU-2 G7 (C03)", "group": "gnss", "lat": 1.7898048336627004, "lon": 153.10441703293367, "alt_km": 35783.25065830909, "timestamp": "2025-12-22T20:43:46.091909+00:00", "meta": {"OBJECT_NAME": "BEIDOU-2 G7 (C03)", "OBJECT_ID": "2016-037A", "EPOCH": "2025-12-19T15:57:04.317984", "MEAN_MOTION": 1.00271972, "ECCENTRICITY": 0.0005143, "INCLINATION": 1.7733, "RA_OF_ASC_NODE": 67.8469, "ARG_OF_PERICENTER": 2.9481, "MEAN_ANOMALY": 7.4377, "EPHEMERIS_TYPE": 0, "CLASSIFICATION_TYPE": "U", "NORAD_CAT_ID": 41586, "ELEMENT_SET_NO": 999, "REV_AT_EPOCH": 509, "BSTAR": 0, "MEAN_MOTION_DOT": -3.3e-06, "MEAN_MOTION_DDOT": 0}, "tle": {"line1": "1 41586U 16037A   25353.66463331 -.00000330  00000+0  00000+0 0  9996", "line2": "2 41586   1.7733  67.8469 0005143   2.9481   7.4377  1.00271972  5095"}}, "geometry": {"type": "Point", "coordinates": [153.10441703293367, 1.7898048336627004]}}, {"type": "Feature", "properties": {"norad_id": 41589, "name": "EUTELSAT 117 WEST B (WAAS/PRN 131)", "group": "gnss", "lat": 0.005749675526248503, "lon": -74.39855403276485, "alt_km": 35784.50991159563, "timestamp": "2025-12-22T20:43:46.091921+00:00", "meta": {"OBJECT_NAME": "EUTELSAT 117 WEST B (WAAS/PRN 131)", "OBJECT_ID": "2016-038B", "EPOCH": "2025-12-22T10:46:33.521376", "MEAN_MOTION": 1.00271447, "ECCENTRICITY": 3.908e-05, "INCLINATION": 0.0103, "RA_OF_ASC_NODE": 138.8686, "ARG_OF_PERICENTER": 145.0277, "MEAN_ANOMALY": 212.0013, "EPHEMERIS_TYPE": 0, "CLASSIFICATION_TYPE": "U", "NORAD_CAT_ID": 41589, "ELEMENT_SET_NO": 999, "REV_AT_EPOCH": 3489, "BSTAR": 0, "MEAN_MOTION_DOT": 1e-07, "MEAN_MOTION_DDOT": 0}, "tle": {"line1": "1 41589U 16038B   25356.44899909  .00000010  00000+0  00000+0 0  9997", "line2": "2 41589   0.0103 138.8686 0000390 145.0277 212.0013  1.00271447 34890"}}, "geometry": {"type": "Point", "coordinates": [-74.39855403276485, 0.005749675526248503]}}, {"type": "Feature", "properties": {"norad_id": 41859, "name": "GSAT0207 (GALILEO 15)", "group": "gnss", "lat": 43.85496952887978, "lon": 147.4634438999941, "alt_km": 23217.951484516183, "timestamp": "2025-12-22T20:43:46.091932+00:00", "meta": {"OBJECT_NAME": "GSAT0207 (GALILEO 15)", "OBJECT_ID": "2016-069A", "EPOCH": "2025-12-20T10:10:36.025248", "MEAN_MOTION": 1.7047449, "ECCENTRICITY": 0.00023887, "INCLINATION": 55.3864, "RA_OF_ASC_NODE": 106.0375, "ARG_OF_PERICENTER": 318.3578, "MEAN_ANOMALY": 41.5905, "EPHEMERIS_TYPE": 0, "CLASSIFICATION_TYPE": "U", "NORAD_CAT_ID": 41859, "ELEMENT_SET_NO": 999, "REV_AT_EPOCH": 5635, "BSTAR": 0, "MEAN_MOTION_DOT": -2e-08, "MEAN_MOTION_DDOT": 0}, "tle": {"line1": "1 41859U 16069A   25354.42402807 -.00000002  00000+0  00000+0 0  9996", "line2": "2 41859  55.3864 106.0375 0002388 318.3578  41.5905  1.70474490 56357"}}, "geometry": {"type": "Point", "coordinates": [147.4634438999941, 43.85496952887978]}}, {"type": "Feature", "properties": {"norad_id": 41860, "name": "GSAT0212 (GALILEO 16)", "group": "gnss", "lat": 26.500231662046097, "lon": -94.1474709488074, "alt_km": 23222.65096798698, "timestamp": "2025-12-22T20:43:46.091946+00:00", "meta": {"OBJECT_NAME": "GSAT0212 (GALILEO 16)", "OBJECT_ID": "2016-069B", "EPOCH": "2025-12-20T20:44:32.412192", "MEAN_MOTION": 1.70474703, "ECCENTRICITY": 0.00020505, "INCLINATION": 55.3843, "RA_OF_ASC_NODE": 106.0207, "ARG_OF_PERICENTER": 18.9555, "MEAN_ANOMALY": 341.0209, "EPHEMERIS_TYPE": 0, "CLASSIFICATION_TYPE": "U", "NORAD_CAT_ID": 41860, "ELEMENT_SET_NO": 999, "REV_AT_EPOCH": 5661, "BSTAR": 0, "MEAN_MOTION_DOT": 0, "MEAN_MOTION_DDOT": 0}, "tle": {"line1": "1 41860U 16069B   25354.86426403  .00000000  00000+0  00000+0 0  9991", "line2": "2 41860  55.3843 106.0207 0002050  18.9555 341.0209  1.70474703 56615"}}, "geometry": {"type": "Point", "coordinates": [-94.1474709488074, 26.500231662046097]}}, {"type": "Feature", "properties": {"norad_id": 41861, "name": "GSAT0213 (GALILEO 17)", "group": "gnss", "lat": -53.768770164943675, "lon": 35.733122614668794, "alt_km": 23220.232922282892, "timestamp": "2025-12-22T20:43:46.091959+00:00", "meta": {"OBJECT_NAME": "GSAT0213 (GALILEO 17)", "OBJECT_ID": "2016-069C", "EPOCH": "2025-12-17T17:05:43.699776", "MEAN_MOTION": 1.70474994, "ECCENTRICITY": 0.000259, "INCLINATION": 55.385, "RA_OF_ASC_NODE": 106.1156, "ARG_OF_PERICENTER": 282.1972, "MEAN_ANOMALY": 77.7328, "EPHEMERIS_TYPE": 0, "CLASSIFICATION_TYPE": "U", "NORAD_CAT_ID": 41861, "ELEMENT_SET_NO": 999, "REV_AT_EPOCH": 5642, "BSTAR": 0, "MEAN_MOTION_DOT": -9e-08, "MEAN_MOTION_DDOT": 0}, "tle": {"line1": "1 41861U 16069C   25351.71231134 -.00000009  00000+0  00000+0 0  9998", "line2": "2 41861  55.3850 106.1156 0002590 282.1972  77.7328  1.70474994 56421"}}, "geometry": {"type": "Point", "coordinates": [35.733122614668794, -53.768770164943675]}}, {"type": "Feature", "properties": {"norad_id": 41862, "name": "GSAT0214 (GALILEO 18)", "group": "gnss", "lat": -9.805228466103166, "lon": -67.19062401574784, "alt_km": 23224.107809625886, "timestamp": "2025-12-22T20:43:46.091972+00:00", "meta": {"OBJECT_NAME": "GSAT0214 (GALILEO 18)", "OBJECT_ID": "2016-069D", "EPOCH": "2025-12-21T09:04:04.029024", "MEAN_MOTION": 1.70474854, "ECCENTRICITY": 0.00016223, "INCLINATION": 55.385, "RA_OF_ASC_NODE": 106.0069, "ARG_OF_PERICENTER": 287.8422, "MEAN_ANOMALY": 72.112, "EPHEMERIS_TYPE": 0, "CLASSIFICATION_TYPE": "U", "NORAD_CAT_ID": 41862, "ELEMENT_SET_NO": 999, "REV_AT_EPOCH": 5661, "BSTAR": 0, "MEAN_MOTION_DOT": 2e-08, "MEAN_MOTION_DDOT": 0}, "tle": {"line1": "1 41862U 16069D   25355.37782441  .00000002  00000+0  00000+0 0  9999", "line2": "2 41862  55.3850 106.0069 0001622 287.8422  72.1120  1.70474854 56616"}}, "geometry": {"type": "Point", "coordinates": [-67.19062401574784, -9.805228466103166]}}, {"type": "Feature", "properties": {"norad_id": 42709, "name": "SES-15 (WAAS/PRN 133)", "group": "gnss", "lat": -0.04030595962589117, "lon": -86.56303357573137, "alt_km": 35787.00080147429, "timestamp": "2025-12-22T20:43:46.092026+00:00", "meta": {"OBJECT_NAME": "SES-15 (WAAS/PRN 133)", "OBJECT_ID": "2017-026A", "EPOCH": "2025-12-22T11:37:11.806752", "MEAN_MOTION": 1.00267282, "ECCENTRICITY": 1.521e-05, "INCLINATION": 0.0196, "RA_OF_ASC_NODE": 338.6163, "ARG_OF_PERICENTER": 354.9736, "MEAN_ANOMALY": 162.8448, "EPHEMERIS_TYPE": 0, "CLASSIFICATION_TYPE": "U", "NORAD_CAT_ID": 42709, "ELEMENT_SET_NO": 999, "REV_AT_EPOCH": 566, "BSTAR": 0, "MEAN_MOTION_DOT": 8.2e-07, "MEAN_MOTION_DDOT": 0}, "tle": {"line1": "1 42709U 17026A   25356.48416443  .00000082  00000+0  00000+0 0  9991", "line2": "2 42709   0.0196 338.6163 0000152 354.9736 162.8448  1.00267282  5663"}}, "geometry": {"type": "Point", "coordinates": [-86.56303357573137, -0.04030595962589117]}}]}